HAWK-C                  
1 43799U 18099AT  26068.67261865  .00009431  00000+0  35663-3 0  9994
2 43799  97.4027 122.6817 0040363 277.4052  82.2601 15.26407167398720
STARLINK-36198          
1 67167U 25303E   26068.66670139  .00040204  00000+0  14633-2 0  9998
2 67167  43.0009 311.2223 0001517 270.5874 221.4743 15.27564344  5814
